CCSDS_OMM_VERS = 2.0
CREATION_DATE  = 
ORIGINATOR     = 

OBJECT_NAME    = HULIANWANG DIGUI-150
OBJECT_ID      = 2026-013E
CENTER_NAME    = EARTH
REF_FRAME      = TEME
TIME_SYSTEM    = UTC
MEAN_ELEMENT_THEORY = SGP/SGP4

EPOCH          = 2026-01-25T03:48:15.856704
MEAN_MOTION    = 13.98253437
ECCENTRICITY   = .0010015
INCLINATION    = 50.0096
RA_OF_ASC_NODE = 161.6201
ARG_OF_PERICENTER = 258.6345
MEAN_ANOMALY   = 101.3432

EPHEMERIS_TYPE = 0
CLASSIFICATION_TYPE = U
NORAD_CAT_ID   = 67526
ELEMENT_SET_NO = 999
REV_AT_EPOCH   = 84
BSTAR          = .2374E-4
MEAN_MOTION_DOT = -.115E-5
MEAN_MOTION_DDOT = 0

CCSDS_OMM_VERS = 2.0
CREATION_DATE  = 
ORIGINATOR     = 

OBJECT_NAME    = HULIANWANG DIGUI-151
OBJECT_ID      = 2026-013F
CENTER_NAME    = EARTH
REF_FRAME      = TEME
TIME_SYSTEM    = UTC
MEAN_ELEMENT_THEORY = SGP/SGP4

EPOCH          = 2026-01-21T03:44:45.585024
MEAN_MOTION    = 13.98327198
ECCENTRICITY   = .00098415
INCLINATION    = 50.0035
RA_OF_ASC_NODE = 177.7600
ARG_OF_PERICENTER = 238.6748
MEAN_ANOMALY   = 121.3191

EPHEMERIS_TYPE = 0
CLASSIFICATION_TYPE = U
NORAD_CAT_ID   = 67527
ELEMENT_SET_NO = 999
REV_AT_EPOCH   = 26
BSTAR          = -.32354314E-3
MEAN_MOTION_DOT = -.614E-5
MEAN_MOTION_DDOT = 0

CCSDS_OMM_VERS = 2.0
CREATION_DATE  = 
ORIGINATOR     = 

OBJECT_NAME    = HULIANWANG DIGUI-152
OBJECT_ID      = 2026-013G
CENTER_NAME    = EARTH
REF_FRAME      = TEME
TIME_SYSTEM    = UTC
MEAN_ELEMENT_THEORY = SGP/SGP4

EPOCH          = 2026-01-24T02:05:33.399168
MEAN_MOTION    = 13.97836723
ECCENTRICITY   = .0009745
INCLINATION    = 50.0047
RA_OF_ASC_NODE = 165.9375
ARG_OF_PERICENTER = 257.1222
MEAN_ANOMALY   = 102.8592

EPHEMERIS_TYPE = 0
CLASSIFICATION_TYPE = U
NORAD_CAT_ID   = 67528
ELEMENT_SET_NO = 999
REV_AT_EPOCH   = 67
BSTAR          = .21603E-4
MEAN_MOTION_DOT = -.118E-5
MEAN_MOTION_DDOT = 0

CCSDS_OMM_VERS = 2.0
CREATION_DATE  = 
ORIGINATOR     = 

OBJECT_NAME    = HULIANWANG DIGUI-153
OBJECT_ID      = 2026-013H
CENTER_NAME    = EARTH
REF_FRAME      = TEME
TIME_SYSTEM    = UTC
MEAN_ELEMENT_THEORY = SGP/SGP4

EPOCH          = 2026-01-21T10:36:05.463360
MEAN_MOTION    = 13.98470310
ECCENTRICITY   = .0008856
INCLINATION    = 50.0011
RA_OF_ASC_NODE = 176.6007
ARG_OF_PERICENTER = 242.1618
MEAN_ANOMALY   = 117.8387

EPHEMERIS_TYPE = 0
CLASSIFICATION_TYPE = U
NORAD_CAT_ID   = 67529
ELEMENT_SET_NO = 999
REV_AT_EPOCH   = 29
BSTAR          = .31747E-4
MEAN_MOTION_DOT = -.104E-5
MEAN_MOTION_DDOT = 0

CCSDS_OMM_VERS = 2.0
CREATION_DATE  = 
ORIGINATOR     = 

OBJECT_NAME    = HULIANWANG DIGUI-154
OBJECT_ID      = 2026-013J
CENTER_NAME    = EARTH
REF_FRAME      = TEME
TIME_SYSTEM    = UTC
MEAN_ELEMENT_THEORY = SGP/SGP4

EPOCH          = 2026-01-21T05:27:11.749248
MEAN_MOTION    = 13.98568419
ECCENTRICITY   = .0008317
INCLINATION    = 50.0045
RA_OF_ASC_NODE = 177.4718
ARG_OF_PERICENTER = 246.2151
MEAN_ANOMALY   = 113.7880

EPHEMERIS_TYPE = 0
CLASSIFICATION_TYPE = U
NORAD_CAT_ID   = 67530
ELEMENT_SET_NO = 999
REV_AT_EPOCH   = 26
BSTAR          = .98151E-4
MEAN_MOTION_DOT = -.8E-7
MEAN_MOTION_DDOT = 0

CCSDS_OMM_VERS = 2.0
CREATION_DATE  = 
ORIGINATOR     = 

OBJECT_NAME    = CZ-12 R/B
OBJECT_ID      = 2026-013K
CENTER_NAME    = EARTH
REF_FRAME      = TEME
TIME_SYSTEM    = UTC
MEAN_ELEMENT_THEORY = SGP/SGP4

EPOCH          = 2026-01-26T17:12:37.473696
MEAN_MOTION    = 14.14452883
ECCENTRICITY   = .00690621
INCLINATION    = 49.9902
RA_OF_ASC_NODE = 154.5543
ARG_OF_PERICENTER = 153.3200
MEAN_ANOMALY   = 207.1288

EPHEMERIS_TYPE = 0
CLASSIFICATION_TYPE = U
NORAD_CAT_ID   = 67531
ELEMENT_SET_NO = 999
REV_AT_EPOCH   = 104
BSTAR          = .16514013E-3
MEAN_MOTION_DOT = .17E-5
MEAN_MOTION_DDOT = 0

CCSDS_OMM_VERS = 2.0
CREATION_DATE  = 
ORIGINATOR     = 

OBJECT_NAME    = 2026-015A
OBJECT_ID      = 2026-015A
CENTER_NAME    = EARTH
REF_FRAME      = TEME
TIME_SYSTEM    = UTC
MEAN_ELEMENT_THEORY = SGP/SGP4

EPOCH          = 2026-01-27T12:15:36.054144
MEAN_MOTION    = 13.52685164
ECCENTRICITY   = .00047834
INCLINATION    = 88.9998
RA_OF_ASC_NODE = 282.8443
ARG_OF_PERICENTER = 112.5853
MEAN_ANOMALY   = 247.5806

EPHEMERIS_TYPE = 0
CLASSIFICATION_TYPE = U
NORAD_CAT_ID   = 67556
ELEMENT_SET_NO = 999
REV_AT_EPOCH   = 69
BSTAR          = .32659283E-3
MEAN_MOTION_DOT = .229E-5
MEAN_MOTION_DDOT = 0

CCSDS_OMM_VERS = 2.0
CREATION_DATE  = 
ORIGINATOR     = 

OBJECT_NAME    = 2026-015B
OBJECT_ID      = 2026-015B
CENTER_NAME    = EARTH
REF_FRAME      = TEME
TIME_SYSTEM    = UTC
MEAN_ELEMENT_THEORY = SGP/SGP4

EPOCH          = 2026-01-27T15:48:46.243584
MEAN_MOTION    = 13.52660343
ECCENTRICITY   = .00049006
INCLINATION    = 88.9997
RA_OF_ASC_NODE = 282.8297
ARG_OF_PERICENTER = 111.4214
MEAN_ANOMALY   = 248.7462

EPHEMERIS_TYPE = 0
CLASSIFICATION_TYPE = U
NORAD_CAT_ID   = 67557
ELEMENT_SET_NO = 999
REV_AT_EPOCH   = 71
BSTAR          = .12786183E-3
MEAN_MOTION_DOT = .97E-6
MEAN_MOTION_DDOT = 0

CCSDS_OMM_VERS = 2.0
CREATION_DATE  = 
ORIGINATOR     = 

OBJECT_NAME    = ELECTRON R/B
OBJECT_ID      = 2026-015C
CENTER_NAME    = EARTH
REF_FRAME      = TEME
TIME_SYSTEM    = UTC
MEAN_ELEMENT_THEORY = SGP/SGP4

EPOCH          = 2026-01-27T03:18:21.969792
MEAN_MOTION    = 14.87019417
ECCENTRICITY   = .06149795
INCLINATION    = 89.0043
RA_OF_ASC_NODE = 282.7507
ARG_OF_PERICENTER = 253.4300
MEAN_ANOMALY   = 99.8559

EPHEMERIS_TYPE = 0
CLASSIFICATION_TYPE = U
NORAD_CAT_ID   = 67558
ELEMENT_SET_NO = 999
REV_AT_EPOCH   = 70
BSTAR          = .1216248E-2
MEAN_MOTION_DOT = .993959E-2
MEAN_MOTION_DDOT = -.440248E-6

CCSDS_OMM_VERS = 2.0
CREATION_DATE  = 
ORIGINATOR     = 

OBJECT_NAME    = ELECTRON KICK STAGE R/B
OBJECT_ID      = 2026-015D
CENTER_NAME    = EARTH
REF_FRAME      = TEME
TIME_SYSTEM    = UTC
MEAN_ELEMENT_THEORY = SGP/SGP4

EPOCH          = 2026-01-27T14:30:10.811520
MEAN_MOTION    = 14.65740459
ECCENTRICITY   = .05391544
INCLINATION    = 89.0539
RA_OF_ASC_NODE = 282.7357
ARG_OF_PERICENTER = 317.8373
MEAN_ANOMALY   = 38.2522

EPHEMERIS_TYPE = 0
CLASSIFICATION_TYPE = U
NORAD_CAT_ID   = 67559
ELEMENT_SET_NO = 999
REV_AT_EPOCH   = 76
BSTAR          = .1348357E-2
MEAN_MOTION_DOT = .79144E-3
MEAN_MOTION_DDOT = .420963E-6

